[{"OBJECT_NAME":"STARLINK-2576","OBJECT_ID":"2021-038AZ","EPOCH":"2026-03-09T22:53:25.929312","MEAN_MOTION":15.30182761,"ECCENTRICITY":0.00010897,"INCLINATION":53.1586,"RA_OF_ASC_NODE":331.3901,"ARG_OF_PERICENTER":73.3268,"MEAN_ANOMALY":286.7852,"EPHEMERIS_TYPE":0,"CLASSIFICATION_TYPE":"U","NORAD_CAT_ID":48400,"ELEMENT_SET_NO":999,"REV_AT_EPOCH":26748,"BSTAR":-3.3990603e-5,"MEAN_MOTION_DOT":-1.365e-5,"MEAN_MOTION_DDOT":0},{"OBJECT_NAME":"COSMOS 2251 DEB","OBJECT_ID":"1993-036N","EPOCH":"2026-03-09T20:39:34.848000","MEAN_MOTION":15.17003756,"ECCENTRICITY":0.00564486,"INCLINATION":74.0035,"RA_OF_ASC_NODE":352.1163,"ARG_OF_PERICENTER":60.1769,"MEAN_ANOMALY":300.5022,"EPHEMERIS_TYPE":0,"CLASSIFICATION_TYPE":"U","NORAD_CAT_ID":33765,"ELEMENT_SET_NO":999,"REV_AT_EPOCH":90936,"BSTAR":0.0026022202,"MEAN_MOTION_DOT":0.00053945,"MEAN_MOTION_DDOT":0}]
